FENGYUN 1C DEB          
1 30062U 99025PP  17345.97350189 -.00000047  00000-0 -13520-5 0  9997
2 30062  99.0302  12.4844 0049674 298.1266 126.9994 14.04101402558671
